0 FENGYUN 1C DEB
1 31520U 99025BXK 13283.19197028  .00003147  00000-0  15193-2 0  4452
2 31520 098.9456 282.8636 0004650 065.8245 294.3485 14.19335715332736
0 FENGYUN 1C DEB
1 31520U 99025BXK 13284.24938985  .00003207  00000-0  15477-2 0  4467
2 31520 098.9512 283.9440 0005108 080.8638 279.3348 14.19343431332887
0 FENGYUN 1C DEB
1 31520U 99025BXK 13285.80025362  .00003501  00000-0  16875-2 0  4477
2 31520 098.9452 285.4973 0004157 065.9168 294.2375 14.19356552333103
0 FENGYUN 1C DEB
1 31520U 99025BXK 13287.21012725  .00003907  00000-0  18798-2 0  4480
2 31520 098.9421 286.9116 0003867 043.6992 316.4716 14.19370483333306
0 FENGYUN 1C DEB
1 31520U 99025BXK 13289.18392066  .00004048  00000-0  19463-2 0  4495
2 31520 098.9426 288.9045 0003821 037.4961 322.6637 14.19387791333582
0 FENGYUN 1C DEB
1 31520U 99025BXK 13290.24129696  .00004192  00000-0  20142-2 0  4509
2 31520 098.9458 289.9781 0003562 040.8598 319.2939 14.19398058333733
0 FENGYUN 1C DEB
1 31520U 99025BXK 13291.79210444  .00004426  00000-0  21245-2 0  4518
2 31520 098.9463 291.5458 0003516 038.5996 321.5437 14.19413403333959
0 FENGYUN 1C DEB
1 31520U 99025BXK 13293.20191785  .00004602  00000-0  22076-2 0  4522
2 31520 098.9466 292.9696 0004124 025.2164 334.9210 14.19427682334151
0 FENGYUN 1C DEB
1 31520U 99025BXK 13295.24612341  .00004620  00000-0  22153-2 0  4531
2 31520 098.9463 295.0352 0003754 022.1658 337.9728 14.19446834334442
